     3.03           N: GNSS NAV DATA    M: Mixed            RINEX VERSION / TYPE
Emlid RGL 1.2.7                         20241128 130253 UTC PGM / RUN BY / DATE 
format: u-blox                                              COMMENT             
GPSA   0.0000E+00  0.0000E+00  0.0000E+00  0.0000E+00       IONOSPHERIC CORR    
GPSB   0.0000E+00  0.0000E+00  0.0000E+00  0.0000E+00       IONOSPHERIC CORR    
GAL    0.0000E+00  0.0000E+00  0.0000E+00  0.0000E+00       IONOSPHERIC CORR    
QZSA   2.5146E-08 -1.4901E-08 -3.5763E-07 -2.9802E-07       IONOSPHERIC CORR    
QZSB   1.2698E+05 -2.4576E+05  1.9661E+05 -4.6531E+06       IONOSPHERIC CORR    
GPUT  0.0000000000E+00 0.000000000E+00      0 2304          TIME SYSTEM CORR    
GAUT  0.0000000000E+00 0.000000000E+00      0    0          TIME SYSTEM CORR    
QZUT  1.0244548321E-08 0.000000000E+00   8192 2343          TIME SYSTEM CORR    
BDUT  0.0000000000E+00 0.000000000E+00      0    0          TIME SYSTEM CORR    
     0                                                      LEAP SECONDS        
                                                            END OF HEADER       
E11 2024 11 28 12 40  0  .545212824363E-03 -.198809857466E-09 -.346944695195E-17
      .170000000000E+02 -.163593750000E+03  .253832001693E-08  .133854234364E+01
     -.771321356297E-05  .146674225107E-03  .381097197533E-05  .544060693932E+04
      .391200000000E+06  .502914190292E-07 -.115654908499E+01 -.596046447754E-07
      .996684823443E+00  .272437500000E+03  .237607151509E+00 -.552094425520E-08
     -.261082303697E-09  .100000000000E+01  .234200000000E+04  .000000000000E+00
      .312000000000E+01  .000000000000E+00 -.162981450558E-07 -.172294676304E-07
      .392419000000E+06  .000000000000E+00
G 8 2024 11 28 14  0  0  .425354111940E-03  .966338120634E-11  .000000000000E+00
      .490000000000E+02  .880625000000E+02  .477698469487E-08  .277472998669E+01
      .447779893875E-05  .100463281851E-01  .279583036900E-05  .515371769142E+04
      .396000000000E+06 -.126659870148E-06 -.232224927116E+01 -.651925802231E-07
      .950443883288E+00  .321406250000E+03  .382090558623E+00 -.834034740895E-08
      .202151277555E-09  .100000000000E+01  .234200000000E+04  .000000000000E+00
      .200000000000E+01  .000000000000E+00  .465661287308E-08  .490000000000E+02
      .392436000000E+06  .400000000000E+01
G 7 2024 11 28 14  0  0 -.177607871592E-04  .181898940355E-11  .000000000000E+00
      .370000000000E+02 -.242187500000E+02  .515021452711E-08  .199347457907E-02
     -.113062560558E-05  .188716973644E-01  .749155879021E-05  .515358341599E+04
      .396000000000E+06 -.147148966789E-06  .190468688144E+01  .199303030968E-06
      .949960593672E+00  .230500000000E+03 -.209175017674E+01 -.859000066515E-08
     -.566809324169E-09  .100000000000E+01  .234200000000E+04  .000000000000E+00
      .200000000000E+01  .000000000000E+00 -.107102096081E-07  .370000000000E+02
      .392406000000E+06  .400000000000E+01
R 3 2024 11 28 13 15  0  .112230889499E-03  .909494701773E-12  .392400000000E+06
     -.216999223633E+05  .152069282532E+01 -.931322574615E-09  .000000000000E+00
     -.733914453125E+04  .311809539795E+00  .279396772385E-08  .500000000000E+01
      .113372182617E+05  .311820602417E+01  .000000000000E+00  .000000000000E+00
E11 2024 11 28 12 50  0  .545093382243E-03 -.198824068320E-09 -.346944695195E-17
      .180000000000E+02 -.165343750000E+03  .253046254678E-08  .141162819189E+01
     -.776536762714E-05  .146577483974E-03  .382028520107E-05  .544060735703E+04
      .391800000000E+06  .596046447754E-07 -.115655233413E+01 -.521540641785E-07
      .996684672763E+00  .272156250000E+03  .238906743562E+00 -.552594446348E-08
     -.266082511976E-09  .100000000000E+01  .234200000000E+04  .000000000000E+00
      .312000000000E+01  .000000000000E+00 -.162981450558E-07 -.172294676304E-07
      .392479000000E+06  .000000000000E+00
E25 2024 11 28 12 50  0  .117124291137E-04  .454747350886E-12  .000000000000E+00
      .180000000000E+02  .127562500000E+03  .283797535592E-08 -.309626017386E+01
      .591203570366E-05  .191704370081E-03  .112429261208E-04  .544062640190E+04
      .391800000000E+06  .167638063431E-07  .303160237075E+01 -.372529029846E-08
      .965195786816E+00  .997500000000E+02 -.195638877190E+00 -.538093842340E-08
     -.135362781260E-09  .100000000000E+01  .234200000000E+04  .000000000000E+00
      .312000000000E+01  .000000000000E+00  .162981450558E-08  .209547579288E-08
      .392479000000E+06  .000000000000E+00
E30 2024 11 28 12 50  0 -.972787907813E-03 -.398756583309E-10  .000000000000E+00
      .180000000000E+02  .143000000000E+03  .274154276769E-08  .567721140710E+00
      .669807195663E-05  .475455773994E-03  .108033418655E-04  .544063704109E+04
      .391800000000E+06 -.409781932831E-07  .303424726227E+01 -.428408384323E-07
      .962992534173E+00  .113281250000E+03  .841444905924E+00 -.531450708484E-08
     -.158578033983E-09  .100000000000E+01  .234200000000E+04  .000000000000E+00
      .312000000000E+01  .000000000000E+00  .139698386192E-08  .162981450558E-08
      .392479000000E+06  .000000000000E+00
J 4 2024 11 28 14  0  0  .215345062315E-04 -.113686837722E-12  .000000000000E+00
      .213000000000E+03  .150093750000E+03  .267761153327E-08  .951406723303E+00
      .570528209209E-05  .748200418893E-01  .106524676085E-04  .649354858971E+04
      .396000000000E+06 -.303611159325E-06  .429632574230E+00 -.109523534775E-05
      .633430537610E+00 -.183437500000E+03 -.155054918509E+01 -.272404203871E-08
      .107933067274E-08  .200000000000E+01  .234200000000E+04  .100000000000E+01
      .280000000000E+01  .100000000000E+01 -.279396772385E-08  .981000000000E+03
      .392556000000E+06  .100000000000E+01
